ONEWEB-0564             
1 55801U 23029F   25210.86526881 -.00000040  00000+0 -12951-3 0  9995
2 55801  87.9284 338.6945 0001871 111.1147 249.0186 13.20770924118601
ONEWEB-0638             
1 55802U 23029G   25211.41484401 -.00000086  00000+0 -26510-3 0  9995
2 55802  87.9072 353.7949 0002250 106.2497 253.8880 13.14502810117832
ONEWEB-0639             
1 55803U 23029H   25210.88634416 -.00000033  00000+0 -11447-3 0  9994
2 55803  87.9237   9.0537 0002662  72.9163 287.2261 13.19726351116393
ONEWEB-0640             
1 55804U 23029J   25210.89152453 -.00000215  00000+0 -61483-3 0  9999
2 55804  87.9068 353.8858 0002573  99.6840 260.4580 13.14503738117071
ONEWEB-0641             
1 55805U 23029K   25210.88161083 -.00000020  00000+0 -83214-4 0  9999
2 55805  87.9237   9.0261 0001936  87.5640 272.5714 13.19724257116409
ONEWEB-0642             
1 55806U 23029L   25210.87688920 -.00000003  00000+0 -40603-4 0  9999
2 55806  87.9233   9.0644 0002284  70.5827 289.5552 13.19725353116391
ONEWEB-0643             
1 55807U 23029M   25210.86139757  .00000142  00000+0  34967-3 0  9995
2 55807  87.9071 353.8747 0001817  71.8019 288.3308 13.14503707117045
ONEWEB-0644             
1 55808U 23029N   25210.94796156 -.00000007  00000+0 -49336-4 0  9996
2 55808  87.9236   9.0559 0002050  79.2514 280.8850 13.19724972116404
ONEWEB-0645             
1 55809U 23029P   25210.94401014  .00000016  00000+0  83071-5 0  9996
2 55809  87.9220   9.0488 0002161  91.6621 268.4759 13.19724376116407
ONEWEB-0646             
1 55810U 23029Q   25210.89821193 -.00000008  00000+0 -51120-4 0  9998
2 55810  87.9220   9.0493 0001815  86.0777 274.0563 13.19725003117078
ONEWEB-0648             
1 55811U 23029R   25210.90581087 -.00000004  00000+0 -44203-4 0  9996
2 55811  87.9062 353.8412 0002589  80.8360 279.3062 13.14501814117050
ONEWEB-0649             
1 55812U 23029S   25210.93689676  .00000020  00000+0  17162-4 0  9993
2 55812  87.9231   9.0348 0002219  84.9243 275.2143 13.19726261116427
ONEWEB-0650             
1 55813U 23029T   25210.85633905  .00000042  00000+0  72155-4 0  9996
2 55813  87.9235   9.0613 0001903  88.1744 271.9607 13.19726325116382
ONEWEB-0652             
1 55814U 23029U   25211.41958751 -.00000183  00000+0 -52712-3 0  9993
2 55814  87.9071 353.7496 0001745 101.2103 258.9223 13.14504055117782
ONEWEB-0653             
1 55815U 23029V   25210.94703461 -.00000045  00000+0 -15481-3 0  9996
2 55815  87.9070 353.8333 0001941 102.5876 257.5471 13.14501305117068
ONEWEB-0654             
1 55816U 23029W   25211.47509881  .00000171  00000+0  42720-3 0  9990
2 55816  87.9066 353.7278 0001745 109.5249 250.6069 13.14502415117840
ONEWEB-0656             
1 55817U 23029X   25210.85893672  .00000030  00000+0  41461-4 0  9992
2 55817  87.9295 338.6387 0001795 113.3285 246.8038 13.20769914118600
