[{"OBJECT_NAME":"ONEWEB-0564","OBJECT_ID":"2023-029F","EPOCH":"2025-07-29T20:45:59.225184","MEAN_MOTION":13.20770924,"ECCENTRICITY":0.0001871,"INCLINATION":87.9284,"RA_OF_ASC_NODE":338.6945,"ARG_OF_PERICENTER":111.1147,"MEAN_ANOMALY":249.0186,"EPHEMERIS_TYPE":0,"CLASSIFICATION_TYPE":"U","NORAD_CAT_ID":55801,"ELEMENT_SET_NO":999,"REV_AT_EPOCH":11860,"BSTAR":-0.00012951,"MEAN_MOTION_DOT":-4.0e-7,"MEAN_MOTION_DDOT":0},{"OBJECT_NAME":"ONEWEB-0638","OBJECT_ID":"2023-029G","EPOCH":"2025-07-30T09:57:22.522464","MEAN_MOTION":13.1450281,"ECCENTRICITY":0.000225,"INCLINATION":87.9072,"RA_OF_ASC_NODE":353.7949,"ARG_OF_PERICENTER":106.2497,"MEAN_ANOMALY":253.888,"EPHEMERIS_TYPE":0,"CLASSIFICATION_TYPE":"U","NORAD_CAT_ID":55802,"ELEMENT_SET_NO":999,"REV_AT_EPOCH":11783,"BSTAR":-0.0002651,"MEAN_MOTION_DOT":-8.6e-7,"MEAN_MOTION_DDOT":0},{"OBJECT_NAME":"ONEWEB-0639","OBJECT_ID":"2023-029H","EPOCH":"2025-07-29T21:16:20.135424","MEAN_MOTION":13.19726351,"ECCENTRICITY":0.0002662,"INCLINATION":87.9237,"RA_OF_ASC_NODE":9.0537,"ARG_OF_PERICENTER":72.9163,"MEAN_ANOMALY":287.2261,"EPHEMERIS_TYPE":0,"CLASSIFICATION_TYPE":"U","NORAD_CAT_ID":55803,"ELEMENT_SET_NO":999,"REV_AT_EPOCH":11639,"BSTAR":-0.00011447,"MEAN_MOTION_DOT":-3.3e-7,"MEAN_MOTION_DDOT":0},{"OBJECT_NAME":"ONEWEB-0640","OBJECT_ID":"2023-029J","EPOCH":"2025-07-29T21:23:47.719392","MEAN_MOTION":13.14503738,"ECCENTRICITY":0.0002573,"INCLINATION":87.9068,"RA_OF_ASC_NODE":353.8858,"ARG_OF_PERICENTER":99.684,"MEAN_ANOMALY":260.458,"EPHEMERIS_TYPE":0,"CLASSIFICATION_TYPE":"U","NORAD_CAT_ID":55804,"ELEMENT_SET_NO":999,"REV_AT_EPOCH":11707,"BSTAR":-0.00061483,"MEAN_MOTION_DOT":-2.15e-6,"MEAN_MOTION_DDOT":0},{"OBJECT_NAME":"ONEWEB-0641","OBJECT_ID":"2023-029K","EPOCH":"2025-07-29T21:09:31.175712","MEAN_MOTION":13.19724257,"ECCENTRICITY":0.0001936,"INCLINATION":87.9237,"RA_OF_ASC_NODE":9.0261,"ARG_OF_PERICENTER":87.564,"MEAN_ANOMALY":272.5714,"EPHEMERIS_TYPE":0,"CLASSIFICATION_TYPE":"U","NORAD_CAT_ID":55805,"ELEMENT_SET_NO":999,"REV_AT_EPOCH":11640,"BSTAR":-8.3214e-5,"MEAN_MOTION_DOT":-2.0e-7,"MEAN_MOTION_DDOT":0},{"OBJECT_NAME":"ONEWEB-0642","OBJECT_ID":"2023-029L","EPOCH":"2025-07-29T21:02:43.226880","MEAN_MOTION":13.19725353,"ECCENTRICITY":0.0002284,"INCLINATION":87.9233,"RA_OF_ASC_NODE":9.0644,"ARG_OF_PERICENTER":70.5827,"MEAN_ANOMALY":289.5552,"EPHEMERIS_TYPE":0,"CLASSIFICATION_TYPE":"U","NORAD_CAT_ID":55806,"ELEMENT_SET_NO":999,"REV_AT_EPOCH":11639,"BSTAR":-4.0603e-5,"MEAN_MOTION_DOT":-3.0e-8,"MEAN_MOTION_DDOT":0},{"OBJECT_NAME":"ONEWEB-0643","OBJECT_ID":"2023-029M","EPOCH":"2025-07-29T20:40:24.750048","MEAN_MOTION":13.14503707,"ECCENTRICITY":0.0001817,"INCLINATION":87.9071,"RA_OF_ASC_NODE":353.8747,"ARG_OF_PERICENTER":71.8019,"MEAN_ANOMALY":288.3308,"EPHEMERIS_TYPE":0,"CLASSIFICATION_TYPE":"U","NORAD_CAT_ID":55807,"ELEMENT_SET_NO":999,"REV_AT_EPOCH":11704,"BSTAR":0.00034967,"MEAN_MOTION_DOT":1.42e-6,"MEAN_MOTION_DDOT":0},{"OBJECT_NAME":"ONEWEB-0644","OBJECT_ID":"2023-029N","EPOCH":"2025-07-29T22:45:03.878784","MEAN_MOTION":13.19724972,"ECCENTRICITY":0.000205,"INCLINATION":87.9236,"RA_OF_ASC_NODE":9.0559,"ARG_OF_PERICENTER":79.2514,"MEAN_ANOMALY":280.885,"EPHEMERIS_TYPE":0,"CLASSIFICATION_TYPE":"U","NORAD_CAT_ID":55808,"ELEMENT_SET_NO":999,"REV_AT_EPOCH":11640,"BSTAR":-4.9336e-5,"MEAN_MOTION_DOT":-7.0e-8,"MEAN_MOTION_DDOT":0},{"OBJECT_NAME":"ONEWEB-0645","OBJECT_ID":"2023-029P","EPOCH":"2025-07-29T22:39:22.476096","MEAN_MOTION":13.19724376,"ECCENTRICITY":0.0002161,"INCLINATION":87.922,"RA_OF_ASC_NODE":9.0488,"ARG_OF_PERICENTER":91.6621,"MEAN_ANOMALY":268.4759,"EPHEMERIS_TYPE":0,"CLASSIFICATION_TYPE":"U","NORAD_CAT_ID":55809,"ELEMENT_SET_NO":999,"REV_AT_EPOCH":11640,"BSTAR":8.3071e-6,"MEAN_MOTION_DOT":1.6e-7,"MEAN_MOTION_DDOT":0},{"OBJECT_NAME":"ONEWEB-0646","OBJECT_ID":"2023-029Q","EPOCH":"2025-07-29T21:33:25.510752","MEAN_MOTION":13.19725003,"ECCENTRICITY":0.0001815,"INCLINATION":87.922,"RA_OF_ASC_NODE":9.0493,"ARG_OF_PERICENTER":86.0777,"MEAN_ANOMALY":274.0563,"EPHEMERIS_TYPE":0,"CLASSIFICATION_TYPE":"U","NORAD_CAT_ID":55810,"ELEMENT_SET_NO":999,"REV_AT_EPOCH":11707,"BSTAR":-5.112e-5,"MEAN_MOTION_DOT":-8.0e-8,"MEAN_MOTION_DDOT":0},{"OBJECT_NAME":"ONEWEB-0648","OBJECT_ID":"2023-029R","EPOCH":"2025-07-29T21:44:22.059168","MEAN_MOTION":13.14501814,"ECCENTRICITY":0.0002589,"INCLINATION":87.9062,"RA_OF_ASC_NODE":353.8412,"ARG_OF_PERICENTER":80.836,"MEAN_ANOMALY":279.3062,"EPHEMERIS_TYPE":0,"CLASSIFICATION_TYPE":"U","NORAD_CAT_ID":55811,"ELEMENT_SET_NO":999,"REV_AT_EPOCH":11705,"BSTAR":-4.4203e-5,"MEAN_MOTION_DOT":-4.0e-8,"MEAN_MOTION_DDOT":0},{"OBJECT_NAME":"ONEWEB-0649","OBJECT_ID":"2023-029S","EPOCH":"2025-07-29T22:29:07.880064","MEAN_MOTION":13.19726261,"ECCENTRICITY":0.0002219,"INCLINATION":87.9231,"RA_OF_ASC_NODE":9.0348,"ARG_OF_PERICENTER":84.9243,"MEAN_ANOMALY":275.2143,"EPHEMERIS_TYPE":0,"CLASSIFICATION_TYPE":"U","NORAD_CAT_ID":55812,"ELEMENT_SET_NO":999,"REV_AT_EPOCH":11642,"BSTAR":1.7162e-5,"MEAN_MOTION_DOT":2.0e-7,"MEAN_MOTION_DDOT":0},{"OBJECT_NAME":"ONEWEB-0650","OBJECT_ID":"2023-029T","EPOCH":"2025-07-29T20:33:07.693920","MEAN_MOTION":13.19726325,"ECCENTRICITY":0.0001903,"INCLINATION":87.9235,"RA_OF_ASC_NODE":9.0613,"ARG_OF_PERICENTER":88.1744,"MEAN_ANOMALY":271.9607,"EPHEMERIS_TYPE":0,"CLASSIFICATION_TYPE":"U","NORAD_CAT_ID":55813,"ELEMENT_SET_NO":999,"REV_AT_EPOCH":11638,"BSTAR":7.2155e-5,"MEAN_MOTION_DOT":4.2e-7,"MEAN_MOTION_DDOT":0},{"OBJECT_NAME":"ONEWEB-0652","OBJECT_ID":"2023-029U","EPOCH":"2025-07-30T10:04:12.360864","MEAN_MOTION":13.14504055,"ECCENTRICITY":0.0001745,"INCLINATION":87.9071,"RA_OF_ASC_NODE":353.7496,"ARG_OF_PERICENTER":101.2103,"MEAN_ANOMALY":258.9223,"EPHEMERIS_TYPE":0,"CLASSIFICATION_TYPE":"U","NORAD_CAT_ID":55814,"ELEMENT_SET_NO":999,"REV_AT_EPOCH":11778,"BSTAR":-0.00052712,"MEAN_MOTION_DOT":-1.83e-6,"MEAN_MOTION_DDOT":0},{"OBJECT_NAME":"ONEWEB-0653","OBJECT_ID":"2023-029V","EPOCH":"2025-07-29T22:43:43.790304","MEAN_MOTION":13.14501305,"ECCENTRICITY":0.0001941,"INCLINATION":87.907,"RA_OF_ASC_NODE":353.8333,"ARG_OF_PERICENTER":102.5876,"MEAN_ANOMALY":257.5471,"EPHEMERIS_TYPE":0,"CLASSIFICATION_TYPE":"U","NORAD_CAT_ID":55815,"ELEMENT_SET_NO":999,"REV_AT_EPOCH":11706,"BSTAR":-0.00015481,"MEAN_MOTION_DOT":-4.5e-7,"MEAN_MOTION_DDOT":0},{"OBJECT_NAME":"ONEWEB-0654","OBJECT_ID":"2023-029W","EPOCH":"2025-07-30T11:24:08.537184","MEAN_MOTION":13.14502415,"ECCENTRICITY":0.0001745,"INCLINATION":87.9066,"RA_OF_ASC_NODE":353.7278,"ARG_OF_PERICENTER":109.5249,"MEAN_ANOMALY":250.6069,"EPHEMERIS_TYPE":0,"CLASSIFICATION_TYPE":"U","NORAD_CAT_ID":55816,"ELEMENT_SET_NO":999,"REV_AT_EPOCH":11784,"BSTAR":0.0004272,"MEAN_MOTION_DOT":1.71e-6,"MEAN_MOTION_DDOT":0},{"OBJECT_NAME":"ONEWEB-0656","OBJECT_ID":"2023-029X","EPOCH":"2025-07-29T20:36:52.132608","MEAN_MOTION":13.20769914,"ECCENTRICITY":0.0001795,"INCLINATION":87.9295,"RA_OF_ASC_NODE":338.6387,"ARG_OF_PERICENTER":113.3285,"MEAN_ANOMALY":246.8038,"EPHEMERIS_TYPE":0,"CLASSIFICATION_TYPE":"U","NORAD_CAT_ID":55817,"ELEMENT_SET_NO":999,"REV_AT_EPOCH":11860,"BSTAR":4.1461e-5,"MEAN_MOTION_DOT":3.0e-7,"MEAN_MOTION_DDOT":0}]
